{
  "type": "FeatureCollection",
  "features": [
    {
      "type": "Feature",
      "properties": {
        "norad_id": 66840,
        "name": "STARLINK-35837",
        "group": "last-30-days",
        "lat": -8.122941635741924,
        "lon": 13.605447809597276,
        "alt_km": 360.7061862804394,
        "timestamp": "2025-12-15T14:57:56.622426+00:00",
        "meta_object_name": "STARLINK-35837",
        "meta_object_id": "2025-280V",
        "meta_epoch": "2025-12-14T20:00:06.000192",
        "meta_mean_motion": 15.73294613,
        "meta_eccentricity": 0.00038319,
        "meta_inclination": 69.9956,
        "meta_ra_of_asc_node": 192.8519,
        "meta_arg_of_pericenter": 278.9315,
        "meta_mean_anomaly": 119.5278,
        "meta_ephemeris_type": 0,
        "meta_classification_type": "U",
        "meta_norad_cat_id": 66840,
        "meta_element_set_no": 999,
        "meta_rev_at_epoch": 323,
        "meta_bstar": -0.013160376,
        "meta_mean_motion_dot": -0.01622399,
        "meta_mean_motion_ddot": 0,
        "tle_line1": "1 66840U 25280V   25348.83340278 -.01622399  00000+0 -13160-1 0  9993",
        "tle_line2": "2 66840  69.9956 192.8519 0003831 278.9315 119.5278 15.73294613  3237"
      },
      "geometry": {
        "type": "Point",
        "coordinates": [
          13.605447809597276,
          -8.122941635741924
        ]
      }
    },
    {
      "type": "Feature",
      "properties": {
        "norad_id": 66841,
        "name": "STARLINK-35715",
        "group": "last-30-days",
        "lat": -9.925515359178382,
        "lon": 14.277108006123383,
        "alt_km": 360.90251250821166,
        "timestamp": "2025-12-15T14:57:56.622437+00:00",
        "meta_object_name": "STARLINK-35715",
        "meta_object_id": "2025-280W",
        "meta_epoch": "2025-12-14T20:00:06.000192",
        "meta_mean_motion": 15.73303131,
        "meta_eccentricity": 0.00035945,
        "meta_inclination": 69.9957,
        "meta_ra_of_asc_node": 192.8491,
        "meta_arg_of_pericenter": 280.2456,
        "meta_mean_anomaly": 120.125,
        "meta_ephemeris_type": 0,
        "meta_classification_type": "U",
        "meta_norad_cat_id": 66841,
        "meta_element_set_no": 999,
        "meta_rev_at_epoch": 323,
        "meta_bstar": -0.013212788,
        "meta_mean_motion_dot": -0.01628474,
        "meta_mean_motion_ddot": 0,
        "tle_line1": "1 66841U 25280W   25348.83340278 -.01628474  00000+0 -13213-1 0  9993",
        "tle_line2": "2 66841  69.9957 192.8491 0003594 280.2456 120.1250 15.73303131  3230"
      },
      "geometry": {
        "type": "Point",
        "coordinates": [
          14.277108006123383,
          -9.925515359178382
        ]
      }
    },
    {
      "type": "Feature",
      "properties": {
        "norad_id": 66842,
        "name": "STARLINK-35769",
        "group": "last-30-days",
        "lat": -11.722003030890235,
        "lon": 14.954738250776469,
        "alt_km": 360.8960236149205,
        "timestamp": "2025-12-15T14:57:56.622446+00:00",
        "meta_object_name": "STARLINK-35769",
        "meta_object_id": "2025-280X",
        "meta_epoch": "2025-12-14T20:00:06.000192",
        "meta_mean_motion": 15.73300092,
        "meta_eccentricity": 0.00036005,
        "meta_inclination": 69.9958,
        "meta_ra_of_asc_node": 192.8466,
        "meta_arg_of_pericenter": 277.3143,
        "meta_mean_anomaly": 124.9766,
        "meta_ephemeris_type": 0,
        "meta_classification_type": "U",
        "meta_norad_cat_id": 66842,
        "meta_element_set_no": 999,
        "meta_rev_at_epoch": 323,
        "meta_bstar": -0.013196105,
        "meta_mean_motion_dot": -0.01626459,
        "meta_mean_motion_ddot": 0,
        "tle_line1": "1 66842U 25280X   25348.83340278 -.01626459  00000+0 -13196-1 0  9995",
        "tle_line2": "2 66842  69.9958 192.8466 0003600 277.3143 124.9766 15.73300092  3239"
      },
      "geometry": {
        "type": "Point",
        "coordinates": [
          14.954738250776469,
          -11.722003030890235
        ]
      }
    },
    {
      "type": "Feature",
      "properties": {
        "norad_id": 66843,
        "name": "STARLINK-35997",
        "group": "last-30-days",
        "lat": -15.350813097548931,
        "lon": 16.3543301159617,
        "alt_km": 361.12395711871795,
        "timestamp": "2025-12-15T14:57:56.622455+00:00",
        "meta_object_name": "STARLINK-35997",
        "meta_object_id": "2025-280Y",
        "meta_epoch": "2025-12-14T20:00:06.000192",
        "meta_mean_motion": 15.73326922,
        "meta_eccentricity": 0.00030845,
        "meta_inclination": 69.9952,
        "meta_ra_of_asc_node": 192.8415,
        "meta_arg_of_pericenter": 278.6574,
        "meta_mean_anomaly": 127.4113,
        "meta_ephemeris_type": 0,
        "meta_classification_type": "U",
        "meta_norad_cat_id": 66843,
        "meta_element_set_no": 999,
        "meta_rev_at_epoch": 323,
        "meta_bstar": -0.013119848,
        "meta_mean_motion_dot": -0.01619331,
        "meta_mean_motion_ddot": 0,
        "tle_line1": "1 66843U 25280Y   25348.83340278 -.01619331  00000+0 -13120-1 0  9994",
        "tle_line2": "2 66843  69.9952 192.8415 0003084 278.6574 127.4113 15.73326922  3230"
      },
      "geometry": {
        "type": "Point",
        "coordinates": [
          16.3543301159617,
          -15.350813097548931
        ]
      }
    },
    {
      "type": "Feature",
      "properties": {
        "norad_id": 66844,
        "name": "STARLINK-36073",
        "group": "last-30-days",
        "lat": -13.555410917206087,
        "lon": 15.656323563589467,
        "alt_km": 361.1303724440868,
        "timestamp": "2025-12-15T14:57:56.622465+00:00",
        "meta_object_name": "STARLINK-36073",
        "meta_object_id": "2025-280Z",
        "meta_epoch": "2025-12-14T20:00:06.000192",
        "meta_mean_motion": 15.73327948,
        "meta_eccentricity": 0.00030656,
        "meta_inclination": 69.9956,
        "meta_ra_of_asc_node": 192.8443,
        "meta_arg_of_pericenter": 281.8057,
        "meta_mean_anomaly": 122.3471,
        "meta_ephemeris_type": 0,
        "meta_classification_type": "U",
        "meta_norad_cat_id": 66844,
        "meta_element_set_no": 999,
        "meta_rev_at_epoch": 323,
        "meta_bstar": -0.013143663,
        "meta_mean_motion_dot": -0.01621995,
        "meta_mean_motion_ddot": 0,
        "tle_line1": "1 66844U 25280Z   25348.83340278 -.01621995  00000+0 -13144-1 0  9990",
        "tle_line2": "2 66844  69.9956 192.8443 0003065 281.8057 122.3471 15.73327948  3237"
      },
      "geometry": {
        "type": "Point",
        "coordinates": [
          15.656323563589467,
          -13.555410917206087
        ]
      }
    },
    {
      "type": "Feature",
      "properties": {
        "norad_id": 66845,
        "name": "STARLINK-36068",
        "group": "last-30-days",
        "lat": -20.6813058195127,
        "lon": 18.51260944183353,
        "alt_km": 361.44347751669466,
        "timestamp": "2025-12-15T14:57:56.622474+00:00",
        "meta_object_name": "STARLINK-36068",
        "meta_object_id": "2025-280AA",
        "meta_epoch": "2025-12-14T20:00:06.000192",
        "meta_mean_motion": 15.73299495,
        "meta_eccentricity": 0.00031046,
        "meta_inclination": 69.9952,
        "meta_ra_of_asc_node": 192.8347,
        "meta_arg_of_pericenter": 276.5239,
        "meta_mean_anomaly": 135.3445,
        "meta_ephemeris_type": 0,
        "meta_classification_type": "U",
        "meta_norad_cat_id": 66845,
        "meta_element_set_no": 999,
        "meta_rev_at_epoch": 323,
        "meta_bstar": -0.013154416,
        "meta_mean_motion_dot": -0.01621437,
        "meta_mean_motion_ddot": 0,
        "tle_line1": "1 66845U 25280AA  25348.83340278 -.01621437  00000+0 -13154-1 0  9993",
        "tle_line2": "2 66845  69.9952 192.8347 0003104 276.5239 135.3445 15.73299495  3234"
      },
      "geometry": {
        "type": "Point",
        "coordinates": [
          18.51260944183353,
          -20.6813058195127
        ]
      }
    },
    {
      "type": "Feature",
      "properties": {
        "norad_id": 66846,
        "name": "STARLINK-36055",
        "group": "last-30-days",
        "lat": -17.101749092658277,
        "lon": 17.048137751350726,
        "alt_km": 361.20088690092325,
        "timestamp": "2025-12-15T14:57:56.622482+00:00",
        "meta_object_name": "STARLINK-36055",
        "meta_object_id": "2025-280AB",
        "meta_epoch": "2025-12-14T20:00:06.000192",
        "meta_mean_motion": 15.73299894,
        "meta_eccentricity": 0.0003257,
        "meta_inclination": 69.9954,
        "meta_ra_of_asc_node": 192.8393,
        "meta_arg_of_pericenter": 275.4876,
        "meta_mean_anomaly": 132.5524,
        "meta_ephemeris_type": 0,
        "meta_classification_type": "U",
        "meta_norad_cat_id": 66846,
        "meta_element_set_no": 999,
        "meta_rev_at_epoch": 323,
        "meta_bstar": -0.013196637,
        "meta_mean_motion_dot": -0.01626217,
        "meta_mean_motion_ddot": 0,
        "tle_line1": "1 66846U 25280AB  25348.83340278 -.01626217  00000+0 -13197-1 0  9992",
        "tle_line2": "2 66846  69.9954 192.8393 0003257 275.4876 132.5524 15.73299894  3232"
      },
      "geometry": {
        "type": "Point",
        "coordinates": [
          17.048137751350726,
          -17.101749092658277
        ]
      }
    }
  ]
}